[{"OBJECT_NAME":"LEMUR-2-ANDIS","OBJECT_ID":"2017-042P","EPOCH":"2026-03-09T13:25:33.116448","MEAN_MOTION":15.30557934,"ECCENTRICITY":0.0009101,"INCLINATION":97.3659,"RA_OF_ASC_NODE":249.795,"ARG_OF_PERICENTER":4.3248,"MEAN_ANOMALY":355.807,"EPHEMERIS_TYPE":0,"CLASSIFICATION_TYPE":"U","NORAD_CAT_ID":42838,"ELEMENT_SET_NO":999,"REV_AT_EPOCH":47319,"BSTAR":0.00079875,"MEAN_MOTION_DOT":0.00023598,"MEAN_MOTION_DDOT":0},{"OBJECT_NAME":"STARLINK-31307","OBJECT_ID":"2024-041R","EPOCH":"2026-03-09T22:50:19.570560","MEAN_MOTION":15.27570904,"ECCENTRICITY":0.00019528,"INCLINATION":43.0068,"RA_OF_ASC_NODE":309.0515,"ARG_OF_PERICENTER":269.184,"MEAN_ANOMALY":90.8788,"EPHEMERIS_TYPE":0,"CLASSIFICATION_TYPE":"U","NORAD_CAT_ID":59089,"ELEMENT_SET_NO":999,"REV_AT_EPOCH":11436,"BSTAR":-4.218454e-6,"MEAN_MOTION_DOT":-3.79e-6,"MEAN_MOTION_DDOT":0}]
